CCSDS_OMM_VERS,COMMENT,CREATION_DATE,ORIGINATOR,OBJECT_NAME,OBJECT_ID,CENTER_NAME,REF_FRAME,TIME_SYSTEM,MEAN_ELEMENT_THEORY,EPOCH,MEAN_MOTION,ECCENTRICITY,INCLINATION,RA_OF_ASC_NODE,ARG_OF_PERICENTER,MEAN_ANOMALY,EPHEMERIS_TYPE,CLASSIFICATION_TYPE,NORAD_CAT_ID,ELEMENT_SET_NO,REV_AT_EPOCH,BSTAR,MEAN_MOTION_DOT,MEAN_MOTION_DDOT,SEMIMAJOR_AXIS,PERIOD,APOAPSIS,PERIAPSIS,OBJECT_TYPE,RCS_SIZE,COUNTRY_CODE,LAUNCH_DATE,SITE,DECAY_DATE,FILE,GP_ID,TLE_LINE0,TLE_LINE1,TLE_LINE2
"2.0","GENERATED VIA SPACE-TRACK.ORG API","2012-12-07T07:40:03","18 SPCS","BLITS","2009-049G","EARTH","TEME","UTC","SGP4","2012-12-07T03:22:33.107807","14.21595806","0.00028350","98.6242","31.9563","267.8336","92.2515","0","U","35871","999","16653","0.00002068600000","0.00000002","0.0000000000000","7198.102","101.294","822.008","817.926","PAYLOAD","SMALL","CIS","2009-09-17","TTMTR","","1399938","91600224","0 BLITS","1 35871U 09049G   12342.14066097  .00000002  00000-0  20686-4 0  9999","2 35871 098.6242 031.9563 0002835 267.8336 092.2515 14.21595806166533"
"2.0","GENERATED VIA SPACE-TRACK.ORG API","2012-12-07T15:31:00","18 SPCS","BLITS","2009-049G","EARTH","TEME","UTC","SGP4","2012-12-07T16:53:22.056864","14.21595739","0.00028290","98.6241","32.5065","265.5556","94.5292","0","U","35871","999","16661","0.00001670300000","-0.00000006","0.0000000000000","7198.102","101.294","822.004","817.931","PAYLOAD","SMALL","CIS","2009-09-17","TTMTR","","1400127","91602531","0 BLITS","1 35871U 09049G   12342.70372751 -.00000006  00000-0  16703-4 0  9998","2 35871 098.6241 032.5065 0002829 265.5556 094.5292 14.21595739166619"
"2.0","GENERATED VIA SPACE-TRACK.ORG API","2012-12-07T23:30:55","18 SPCS","BLITS","2009-049G","EARTH","TEME","UTC","SGP4","2012-12-08T01:20:07.656287","14.21595808","0.00028390","98.6242","32.8504","264.5657","95.5205","0","U","35871","999","16666","0.00001777700000","-0.00000004","0.0000000000000","7198.102","101.294","822.011","817.924","PAYLOAD","SMALL","CIS","2009-09-17","TTMTR","","1400257","91604474","0 BLITS","1 35871U 09049G   12343.05564417 -.00000004  00000-0  17777-4 0  9999","2 35871 098.6242 032.8504 0002839 264.5657 095.5205 14.21595808166660"
"2.0","GENERATED VIA SPACE-TRACK.ORG API","2012-12-08T07:41:23","18 SPCS","BLITS","2009-049G","EARTH","TEME","UTC","SGP4","2012-12-08T03:01:28.761311","14.21595830","0.00028490","98.6238","32.9193","263.9073","96.1786","0","U","35871","999","16667","0.00001749900000","-0.00000005","0.0000000000000","7198.102","101.294","822.018","817.916","PAYLOAD","SMALL","CIS","2009-09-17","TTMTR","","1400408","91606945","0 BLITS","1 35871U 09049G   12343.12602733 -.00000005  00000-0  17499-4 0  9993","2 35871 098.6238 032.9193 0002849 263.9073 096.1786 14.21595830166673"
"2.0","GENERATED VIA SPACE-TRACK.ORG API","2012-12-08T15:42:26","18 SPCS","BLITS","2009-049G","EARTH","TEME","UTC","SGP4","2012-12-08T16:32:17.695680","14.21595730","0.00028740","98.6240","33.4698","262.0208","98.0641","0","U","35871","999","16675","0.00001190700000","-0.00000017","0.0000000000000","7198.102","101.294","822.036","817.899","PAYLOAD","SMALL","CIS","2009-09-17","TTMTR","","1400594","91609732","0 BLITS","1 35871U 09049G   12343.68909370 -.00000017  00000-0  11907-4 0  9992","2 35871 098.6240 033.4698 0002874 262.0208 098.0641 14.21595730166759"
"2.0","GENERATED VIA SPACE-TRACK.ORG API","2012-12-08T23:40:45","18 SPCS","BLITS","2009-049G","EARTH","TEME","UTC","SGP4","2012-12-09T00:59:03.289055","14.21595761","0.00028720","98.6240","33.8137","261.1072","98.9782","0","U","35871","999","16680","0.00001214600000","-0.00000016","0.0000000000000","7198.102","101.294","822.035","817.900","PAYLOAD","SMALL","CIS","2009-09-17","TTMTR","","1400726","91612366","0 BLITS","1 35871U 09049G   12344.04101029 -.00000016  00000-0  12146-4 0  9993","2 35871 098.6240 033.8137 0002872 261.1072 098.9782 14.21595761166803"
"2.0","GENERATED VIA SPACE-TRACK.ORG API","2012-12-09T07:50:04","18 SPCS","BLITS","2009-049G","EARTH","TEME","UTC","SGP4","2012-12-09T02:40:24.404448","14.21595775","0.00028970","98.6240","33.8826","260.3486","99.7372","0","U","35871","999","16681","0.00001231300000","-0.00000016","0.0000000000000","7198.102","101.294","822.052","817.882","PAYLOAD","SMALL","CIS","2009-09-17","TTMTR","","1400859","91615368","0 BLITS","1 35871U 09049G   12344.11139357 -.00000016  00000-0  12313-4 0  9992","2 35871 098.6240 033.8826 0002897 260.3486 099.7372 14.21595775166815"
"2.0","GENERATED VIA SPACE-TRACK.ORG API","2012-12-09T15:36:36","18 SPCS","BLITS","2009-049G","EARTH","TEME","UTC","SGP4","2012-12-09T17:52:34.453343","14.21595709","0.00028810","98.6242","34.5017","258.2999","101.7847","0","U","35871","999","16690","0.00000899540000","-0.00000023","0.0000000000000","7198.102","101.294","822.041","817.894","PAYLOAD","SMALL","CIS","2009-09-17","TTMTR","","1401000","91618417","0 BLITS","1 35871U 09049G   12344.74484321 -.00000023  00000-0  89954-5 0  9999","2 35871 098.6242 034.5017 0002881 258.2999 101.7847 14.21595709166903"
"2.0","GENERATED VIA SPACE-TRACK.ORG API","2012-12-09T23:31:25","18 SPCS","BLITS","2009-049G","EARTH","TEME","UTC","SGP4","2012-12-10T00:37:58.938239","14.21595762","0.00028830","98.6242","34.7767","257.7049","102.3810","0","U","35871","999","16694","0.00001018600000","-0.00000021","0.0000000000000","7198.102","101.294","822.042","817.892","PAYLOAD","SMALL","CIS","2009-09-17","TTMTR","","1401124","91620503","0 BLITS","1 35871U 09049G   12345.02637660 -.00000021  00000-0  10186-4 0  9995","2 35871 098.6242 034.7767 0002883 257.7049 102.3810 14.21595762166949"
"2.0","GENERATED VIA SPACE-TRACK.ORG API","2012-12-10T07:39:35","18 SPCS","BLITS","2009-049G","EARTH","TEME","UTC","SGP4","2012-12-10T02:19:20.049311","14.21595749","0.00028790","98.6242","34.8456","257.5817","102.5037","0","U","35871","999","16695","0.00000947750000","-0.00000022","0.0000000000000","7198.102","101.294","822.040","817.895","PAYLOAD","SMALL","CIS","2009-09-17","TTMTR","","1401247","91622711","0 BLITS","1 35871U 09049G   12345.09675983 -.00000022  00000-0  94775-5 0  9990","2 35871 098.6242 034.8456 0002879 257.5817 102.5037 14.21595749166950"
"2.0","GENERATED VIA SPACE-TRACK.ORG API","2012-12-10T15:40:40","18 SPCS","BLITS","2009-049G","EARTH","TEME","UTC","SGP4","2012-12-10T17:31:30.105119","14.21595620","0.00029060","98.6243","35.4646","254.1292","105.9557","0","U","35871","999","16704","0.00000343730000","-0.00000036","0.0000000000000","7198.103","101.294","822.059","817.876","PAYLOAD","SMALL","CIS","2009-09-17","TTMTR","","1401410","91625131","0 BLITS","1 35871U 09049G   12345.73020955 -.00000036  00000-0  34373-5 0  9997","2 35871 098.6243 035.4646 0002906 254.1292 105.9557 14.21595620167043"
"2.0","GENERATED VIA SPACE-TRACK.ORG API","2012-12-10T23:40:49","18 SPCS","BLITS","2009-049G","EARTH","TEME","UTC","SGP4","2012-12-11T03:39:36.815616","14.21595743","0.00028660","98.6241","35.8773","254.5176","105.5673","0","U","35871","999","16710","0.00000865930000","-0.00000024","0.0000000000000","7198.102","101.294","822.030","817.904","PAYLOAD","SMALL","CIS","2009-09-17","TTMTR","","1401563","91627646","0 BLITS","1 35871U 09049G   12346.15250944 -.00000024  00000-0  86593-5 0  9995","2 35871 098.6241 035.8773 0002866 254.5176 105.5673 14.21595743167104"
"2.0","GENERATED VIA SPACE-TRACK.ORG API","2012-12-11T15:55:02","18 SPCS","BLITS","2009-049G","EARTH","TEME","UTC","SGP4","2012-12-11T13:47:43.544255","14.21595747","0.00028720","98.6242","36.2901","252.8358","107.2506","0","U","35871","999","16716","0.00000822700000","-0.00000025","0.0000000000000","7198.102","101.294","822.035","817.900","PAYLOAD","SMALL","CIS","2009-09-17","TTMTR","","1401936","91633581","0 BLITS","1 35871U 09049G   12346.57480954 -.00000025  00000-0  82270-5 0  9996","2 35871 098.6242 036.2901 0002872 252.8358 107.2506 14.21595747167167"
"2.0","GENERATED VIA SPACE-TRACK.ORG API","2012-12-11T23:45:47","18 SPCS","BLITS","2009-049G","EARTH","TEME","UTC","SGP4","2012-12-12T03:18:32.497631","14.21595472","0.00028820","98.6242","36.8402","249.5887","110.4966","0","U","35871","999","16724","-0.00000244690000","-0.00000048","0.0000000000000","7198.103","101.294","822.043","817.894","PAYLOAD","SMALL","CIS","2009-09-17","TTMTR","","1402110","91636149","0 BLITS","1 35871U 09049G   12347.13787613 -.00000048  00000-0 -24469-5 0  9993","2 35871 098.6242 036.8402 0002882 249.5887 110.4966 14.21595472167240"
"2.0","GENERATED VIA SPACE-TRACK.ORG API","2012-12-12T15:56:59","18 SPCS","BLITS","2009-049G","EARTH","TEME","UTC","SGP4","2012-12-12T16:49:21.476064","14.21595408","0.00029020","98.6241","37.3904","248.0279","112.0589","0","U","35871","999","16732","-0.00000532700000","-0.00000055","0.0000000000000","7198.103","101.294","822.057","817.880","PAYLOAD","SMALL","CIS","2009-09-17","TTMTR","","1402591","91641762","0 BLITS","1 35871U 09049G   12347.70094301 -.00000055  00000-0 -53270-5 0  9991","2 35871 098.6241 037.3904 0002902 248.0279 112.0589 14.21595408167321"
"2.0","GENERATED VIA SPACE-TRACK.ORG API","2012-12-12T23:40:21","18 SPCS","BLITS","2009-049G","EARTH","TEME","UTC","SGP4","2012-12-13T01:16:07.077215","14.21595435","0.00028980","98.6241","37.7342","247.1969","112.8906","0","U","35871","999","16737","-0.00000432480000","-0.00000053","0.0000000000000","7198.103","101.294","822.054","817.882","PAYLOAD","SMALL","CIS","2009-09-17","TTMTR","","1403043","91644696","0 BLITS","1 35871U 09049G   12348.05285969 -.00000053  00000-0 -43248-5 0  9994","2 35871 098.6241 037.7342 0002898 247.1969 112.8906 14.21595435167377"
